[
    {
        "Altitude(m)": 563819.7484420368,
        "Argument of Periapsis(deg)": 0.033114955553567506,
        "Eccentricity": 0.0,
        "Inclination(deg)": 53.0,
        "Latitude(deg)": -33.359741210785245,
        "Longitude(deg)": -44.42313732848215,
        "Mean Anomaly(deg)": -136.814635662112,
        "RAAN(deg)": 209.9507168426401,
        "Satellite Name": "Starlink Shell 1 934",
        "Satellite Number": 934,
        "Semi-Major Axis(m)": 6931778.249405717,
        "Time(s)": 950
    },
    {
        "Altitude(m)": 563994.0436679136,
        "Argument of Periapsis(deg)": 0.03346353403307874,
        "Eccentricity": 0.0,
        "Inclination(deg)": 53.0,
        "Latitude(deg)": -33.794663748698085,
        "Longitude(deg)": -43.92409768914531,
        "Mean Anomaly(deg)": -136.18780445855532,
        "RAAN(deg)": 209.95019807256264,
        "Satellite Name": "Starlink Shell 1 934",
        "Satellite Number": 934,
        "Semi-Major Axis(m)": 6931778.249405717,
        "Time(s)": 960
    },
    {
        "Altitude(m)": 564167.9355924808,
        "Argument of Periapsis(deg)": 0.03381211251258998,
        "Eccentricity": 0.0,
        "Inclination(deg)": 53.0,
        "Latitude(deg)": -34.22715358538532,
        "Longitude(deg)": -43.41960105986812,
        "Mean Anomaly(deg)": -135.56097325499866,
        "RAAN(deg)": 209.94967930248515,
        "Satellite Name": "Starlink Shell 1 934",
        "Satellite Number": 934,
        "Semi-Major Axis(m)": 6931778.249405717,
        "Time(s)": 970
    },
    {
        "Altitude(m)": 564341.357859473,
        "Argument of Periapsis(deg)": 0.034160690992101214,
        "Eccentricity": 0.0,
        "Inclination(deg)": 53.0,
        "Latitude(deg)": -34.65714747836153,
        "Longitude(deg)": -42.909533004865104,
        "Mean Anomaly(deg)": -134.9341420514419,
        "RAAN(deg)": 209.9491605324077,
        "Satellite Name": "Starlink Shell 1 934",
        "Satellite Number": 934,
        "Semi-Major Axis(m)": 6931778.249405717,
        "Time(s)": 980
    },
    {
        "Altitude(m)": 564514.2441764278,
        "Argument of Periapsis(deg)": 0.034509269471612446,
        "Eccentricity": 0.0,
        "Inclination(deg)": 53.0,
        "Latitude(deg)": -35.08458072874079,
        "Longitude(deg)": -42.393777689988845,
        "Mean Anomaly(deg)": -134.30731084788513,
        "RAAN(deg)": 209.94864176233023,
        "Satellite Name": "Starlink Shell 1 934",
        "Satellite Number": 934,
        "Semi-Major Axis(m)": 6931778.249405717,
        "Time(s)": 990
    }
]